0 COSMOS 2319
1 23653U 95045A   13281.34425781 -.00000179  00000-0  00000+0 0  5040
2 23653 012.8794 035.9848 0008471 111.7491 262.6683 01.00161083 66301
0 COSMOS 2319
1 23653U 95045A   13287.36478005 -.00000175  00000-0  00000+0 0  5063
2 23653 012.8883 035.9147 0008111 114.2971 271.0753 01.00160747 66368
0 COSMOS 2319
1 23653U 95045A   13289.53175486 -.00000170  00000-0  00000+0 0  5077
2 23653 012.8914 035.8893 0007908 114.5390 332.2286 01.00160556 66382
0 COSMOS 2319
1 23653U 95045A   13292.31222950 -.00000161  00000-0  00000+0 0  5087
2 23653 012.8954 035.8569 0007743 114.0520 255.3360 01.00160180 66418
0 COSMOS 2319
1 23653U 95045A   13294.33461388 -.00000153  00000-0  00000+0 0  5093
2 23653 012.8984 035.8335 0007673 113.4724 265.1742 01.00159809 66434
